CCSDS_OMM_VERS = 2.0
CREATION_DATE  = 
ORIGINATOR     = 

OBJECT_NAME    = IDEFIX & ARIANE 42P R/B
OBJECT_ID      = 2002-021B
CENTER_NAME    = EARTH
REF_FRAME      = TEME
TIME_SYSTEM    = UTC
MEAN_ELEMENT_THEORY = SGP/SGP4

EPOCH          = 2026-01-16T13:04:16.743936
MEAN_MOTION    = 14.30979674
ECCENTRICITY   = .00116587
INCLINATION    = 98.5820
RA_OF_ASC_NODE = 315.7910
ARG_OF_PERICENTER = 346.6781
MEAN_ANOMALY   = 13.4092

EPHEMERIS_TYPE = 0
CLASSIFICATION_TYPE = U
NORAD_CAT_ID   = 27422
ELEMENT_SET_NO = 999
REV_AT_EPOCH   = 23656
BSTAR          = .8527963E-4
MEAN_MOTION_DOT = .181E-5
MEAN_MOTION_DDOT = 0

CCSDS_OMM_VERS = 2.0
CREATION_DATE  = 
ORIGINATOR     = 

OBJECT_NAME    = AQUA
OBJECT_ID      = 2002-022A
CENTER_NAME    = EARTH
REF_FRAME      = TEME
TIME_SYSTEM    = UTC
MEAN_ELEMENT_THEORY = SGP/SGP4

EPOCH          = 2026-01-16T14:21:35.913312
MEAN_MOTION    = 14.61823666
ECCENTRICITY   = .00020183
INCLINATION    = 98.4084
RA_OF_ASC_NODE = 343.0525
ARG_OF_PERICENTER = 76.3524
MEAN_ANOMALY   = 343.9424

EPHEMERIS_TYPE = 0
CLASSIFICATION_TYPE = U
NORAD_CAT_ID   = 27424
ELEMENT_SET_NO = 999
REV_AT_EPOCH   = 26112
BSTAR          = .14409762E-3
MEAN_MOTION_DOT = .67E-5
MEAN_MOTION_DDOT = 0

CCSDS_OMM_VERS = 2.0
CREATION_DATE  = 
ORIGINATOR     = 

OBJECT_NAME    = CZ-4B R/B
OBJECT_ID      = 2002-024C
CENTER_NAME    = EARTH
REF_FRAME      = TEME
TIME_SYSTEM    = UTC
MEAN_ELEMENT_THEORY = SGP/SGP4

EPOCH          = 2026-01-16T14:23:45.660192
MEAN_MOTION    = 14.14535967
ECCENTRICITY   = .00503907
INCLINATION    = 98.8947
RA_OF_ASC_NODE = 70.2411
ARG_OF_PERICENTER = 169.9097
MEAN_ANOMALY   = 310.0943

EPHEMERIS_TYPE = 0
CLASSIFICATION_TYPE = U
NORAD_CAT_ID   = 27432
ELEMENT_SET_NO = 999
REV_AT_EPOCH   = 22187
BSTAR          = .36174126E-4
MEAN_MOTION_DOT = .26E-6
MEAN_MOTION_DDOT = 0

CCSDS_OMM_VERS = 2.0
CREATION_DATE  = 
ORIGINATOR     = 

OBJECT_NAME    = MIDORI II (ADEOS-II)
OBJECT_ID      = 2002-056A
CENTER_NAME    = EARTH
REF_FRAME      = TEME
TIME_SYSTEM    = UTC
MEAN_ELEMENT_THEORY = SGP/SGP4

EPOCH          = 2026-01-16T13:54:16.603776
MEAN_MOTION    = 14.29235878
ECCENTRICITY   = .0001759
INCLINATION    = 98.7684
RA_OF_ASC_NODE = 334.7278
ARG_OF_PERICENTER = 116.1285
MEAN_ANOMALY   = 244.0078

EPHEMERIS_TYPE = 0
CLASSIFICATION_TYPE = U
NORAD_CAT_ID   = 27597
ELEMENT_SET_NO = 999
REV_AT_EPOCH   = 20285
BSTAR          = .86809788E-4
MEAN_MOTION_DOT = .175E-5
MEAN_MOTION_DDOT = 0

CCSDS_OMM_VERS = 2.0
CREATION_DATE  = 
ORIGINATOR     = 

OBJECT_NAME    = H-2A R/B
OBJECT_ID      = 2002-056E
CENTER_NAME    = EARTH
REF_FRAME      = TEME
TIME_SYSTEM    = UTC
MEAN_ELEMENT_THEORY = SGP/SGP4

EPOCH          = 2026-01-16T12:21:59.282208
MEAN_MOTION    = 14.33712288
ECCENTRICITY   = .00695364
INCLINATION    = 98.3111
RA_OF_ASC_NODE = 338.8975
ARG_OF_PERICENTER = 317.9186
MEAN_ANOMALY   = 151.2599

EPHEMERIS_TYPE = 0
CLASSIFICATION_TYPE = U
NORAD_CAT_ID   = 27601
ELEMENT_SET_NO = 999
REV_AT_EPOCH   = 20663
BSTAR          = .1013966E-3
MEAN_MOTION_DOT = .247E-5
MEAN_MOTION_DDOT = 0

CCSDS_OMM_VERS = 2.0
CREATION_DATE  = 
ORIGINATOR     = 

OBJECT_NAME    = CZ-4B R/B
OBJECT_ID      = 2003-049C
CENTER_NAME    = EARTH
REF_FRAME      = TEME
TIME_SYSTEM    = UTC
MEAN_ELEMENT_THEORY = SGP/SGP4

EPOCH          = 2026-01-16T12:45:42.978816
MEAN_MOTION    = 14.54949577
ECCENTRICITY   = .00488691
INCLINATION    = 98.6817
RA_OF_ASC_NODE = 9.4161
ARG_OF_PERICENTER = 32.0694
MEAN_ANOMALY   = 328.3459

EPHEMERIS_TYPE = 0
CLASSIFICATION_TYPE = U
NORAD_CAT_ID   = 28059
ELEMENT_SET_NO = 999
REV_AT_EPOCH   = 17901
BSTAR          = .87275249E-4
MEAN_MOTION_DOT = .33E-5
MEAN_MOTION_DDOT = 0

CCSDS_OMM_VERS = 2.0
CREATION_DATE  = 
ORIGINATOR     = 

OBJECT_NAME    = CZ-2C R/B
OBJECT_ID      = 2004-012C
CENTER_NAME    = EARTH
REF_FRAME      = TEME
TIME_SYSTEM    = UTC
MEAN_ELEMENT_THEORY = SGP/SGP4

EPOCH          = 2026-01-16T02:57:49.786560
MEAN_MOTION    = 15.58481950
ECCENTRICITY   = .00170207
INCLINATION    = 97.7365
RA_OF_ASC_NODE = 76.6525
ARG_OF_PERICENTER = 141.9420
MEAN_ANOMALY   = 218.3041

EPHEMERIS_TYPE = 0
CLASSIFICATION_TYPE = U
NORAD_CAT_ID   = 28222
ELEMENT_SET_NO = 999
REV_AT_EPOCH   = 19607
BSTAR          = .41185012E-3
MEAN_MOTION_DOT = .31581E-3
MEAN_MOTION_DDOT = 0

CCSDS_OMM_VERS = 2.0
CREATION_DATE  = 
ORIGINATOR     = 

OBJECT_NAME    = SL-16 R/B
OBJECT_ID      = 2004-021B
CENTER_NAME    = EARTH
REF_FRAME      = TEME
TIME_SYSTEM    = UTC
MEAN_ELEMENT_THEORY = SGP/SGP4

EPOCH          = 2026-01-16T08:12:04.583808
MEAN_MOTION    = 14.14592719
ECCENTRICITY   = .00029761
INCLINATION    = 71.0030
RA_OF_ASC_NODE = 342.3489
ARG_OF_PERICENTER = 141.7048
MEAN_ANOMALY   = 218.4286

EPHEMERIS_TYPE = 0
CLASSIFICATION_TYPE = U
NORAD_CAT_ID   = 28353
ELEMENT_SET_NO = 999
REV_AT_EPOCH   = 11543
BSTAR          = -.13521539E-4
MEAN_MOTION_DOT = -.74E-6
MEAN_MOTION_DDOT = 0

CCSDS_OMM_VERS = 2.0
CREATION_DATE  = 
ORIGINATOR     = 

OBJECT_NAME    = CZ-4B R/B
OBJECT_ID      = 2004-035C
CENTER_NAME    = EARTH
REF_FRAME      = TEME
TIME_SYSTEM    = UTC
MEAN_ELEMENT_THEORY = SGP/SGP4

EPOCH          = 2026-01-16T12:55:42.040128
MEAN_MOTION    = 15.28011819
ECCENTRICITY   = .00336164
INCLINATION    = 97.3573
RA_OF_ASC_NODE = 51.4269
ARG_OF_PERICENTER = 151.1223
MEAN_ANOMALY   = 209.1887

EPHEMERIS_TYPE = 0
CLASSIFICATION_TYPE = U
NORAD_CAT_ID   = 28415
ELEMENT_SET_NO = 999
REV_AT_EPOCH   = 17194
BSTAR          = .20876452E-3
MEAN_MOTION_DOT = .5724E-4
MEAN_MOTION_DDOT = 0

CCSDS_OMM_VERS = 2.0
CREATION_DATE  = 
ORIGINATOR     = 

OBJECT_NAME    = CZ-2C R/B
OBJECT_ID      = 2004-046B
CENTER_NAME    = EARTH
REF_FRAME      = TEME
TIME_SYSTEM    = UTC
MEAN_ELEMENT_THEORY = SGP/SGP4

EPOCH          = 2026-01-16T12:39:35.955936
MEAN_MOTION    = 14.26966182
ECCENTRICITY   = .01385966
INCLINATION    = 98.2002
RA_OF_ASC_NODE = 294.7475
ARG_OF_PERICENTER = 309.5091
MEAN_ANOMALY   = 49.3904

EPHEMERIS_TYPE = 0
CLASSIFICATION_TYPE = U
NORAD_CAT_ID   = 28480
ELEMENT_SET_NO = 999
REV_AT_EPOCH   = 10106
BSTAR          = .58120498E-4
MEAN_MOTION_DOT = .114E-5
MEAN_MOTION_DDOT = 0

CCSDS_OMM_VERS = 2.0
CREATION_DATE  = 
ORIGINATOR     = 

OBJECT_NAME    = ARIANE 5 R/B
OBJECT_ID      = 2004-049H
CENTER_NAME    = EARTH
REF_FRAME      = TEME
TIME_SYSTEM    = UTC
MEAN_ELEMENT_THEORY = SGP/SGP4

EPOCH          = 2026-01-16T11:41:30.820128
MEAN_MOTION    = 14.85122805
ECCENTRICITY   = .00847929
INCLINATION    = 98.2547
RA_OF_ASC_NODE = 183.0215
ARG_OF_PERICENTER = 159.5408
MEAN_ANOMALY   = 200.9236

EPHEMERIS_TYPE = 0
CLASSIFICATION_TYPE = U
NORAD_CAT_ID   = 28499
ELEMENT_SET_NO = 999
REV_AT_EPOCH   = 13804
BSTAR          = .10106249E-3
MEAN_MOTION_DOT = .858E-5
MEAN_MOTION_DDOT = 0

CCSDS_OMM_VERS = 2.0
CREATION_DATE  = 
ORIGINATOR     = 

OBJECT_NAME    = CZ-2D R/B
OBJECT_ID      = 2005-024B
CENTER_NAME    = EARTH
REF_FRAME      = TEME
TIME_SYSTEM    = UTC
MEAN_ELEMENT_THEORY = SGP/SGP4

EPOCH          = 2026-01-16T13:12:45.290880
MEAN_MOTION    = 15.55533179
ECCENTRICITY   = .00045158
INCLINATION    = 97.3617
RA_OF_ASC_NODE = 29.9683
ARG_OF_PERICENTER = 184.3729
MEAN_ANOMALY   = 175.7487

EPHEMERIS_TYPE = 0
CLASSIFICATION_TYPE = U
NORAD_CAT_ID   = 28738
ELEMENT_SET_NO = 999
REV_AT_EPOCH   = 13166
BSTAR          = .36865101E-3
MEAN_MOTION_DOT = .25151E-3
MEAN_MOTION_DDOT = 0

