IDEFIX & ARIANE 42P R/B 
1 27422U 02021B   26016.54463824  .00000181  00000+0  85280-4 0  9999
2 27422  98.5820 315.7910 0011658 346.6781  13.4092 14.30979674236564
AQUA                    
1 27424U 02022A   26016.59833233  .00000670  00000+0  14410-3 0  9991
2 27424  98.4084 343.0525 0002018  76.3524 343.9424 14.61823666261128
CZ-4B R/B               
1 27432U 02024C   26016.59983403  .00000026  00000+0  36174-4 0  9994
2 27432  98.8947  70.2411 0050390 169.9097 310.0943 14.14535967221873
MIDORI II (ADEOS-II)    
1 27597U 02056A   26016.57935884  .00000175  00000+0  86810-4 0  9996
2 27597  98.7684 334.7278 0001759 116.1285 244.0078 14.29235878202855
H-2A R/B                
1 27601U 02056E   26016.51526947  .00000247  00000+0  10140-3 0  9994
2 27601  98.3111 338.8975 0069536 317.9186 151.2599 14.33712288206636
CZ-4B R/B               
1 28059U 03049C   26016.53174744  .00000330  00000+0  87275-4 0  9998
2 28059  98.6817   9.4161 0048869  32.0694 328.3459 14.54949577179012
CZ-2C R/B               
1 28222U 04012C   26016.12349290  .00031581  00000+0  41185-3 0  9997
2 28222  97.7365  76.6525 0017020 141.9420 218.3041 15.58481950196075
SL-16 R/B               
1 28353U 04021B   26016.34171972 -.00000074  00000+0 -13522-4 0  9996
2 28353  71.0030 342.3489 0002976 141.7048 218.4286 14.14592719115434
CZ-4B R/B               
1 28415U 04035C   26016.53868102  .00005724  00000+0  20876-3 0  9993
2 28415  97.3573  51.4269 0033616 151.1223 209.1887 15.28011819171940
CZ-2C R/B               
1 28480U 04046B   26016.52749949  .00000114  00000+0  58120-4 0  9995
2 28480  98.2002 294.7475 0138596 309.5091  49.3904 14.26966182101064
ARIANE 5 R/B            
1 28499U 04049H   26016.48716227  .00000858  00000+0  10106-3 0  9992
2 28499  98.2547 183.0215 0084792 159.5408 200.9236 14.85122805138045
CZ-2D R/B               
1 28738U 05024B   26016.55052420  .00025151  00000+0  36865-3 0  9991
2 28738  97.3617  29.9683 0004515 184.3729 175.7487 15.55533179131669
